STARLINK-3239           
1 49743U 21115V   26068.54728021 -.00000338  00000+0 -31408-5 0  9994
2 49743  53.2175 149.6935 0001248  81.7072 278.4062 15.08836358235511
LEMUR-2-SIERRINI        
1 60579U 24149DR  26068.80891719  .00014386  00000+0  92040-3 0  9991
2 60579  97.6873 151.1225 0006580 147.8458 212.3173 15.08682764 85461
