[{"OBJECT_NAME":"STARLINK-3239","OBJECT_ID":"2021-115V","EPOCH":"2026-03-09T13:08:05.010144","MEAN_MOTION":15.08836358,"ECCENTRICITY":0.00012481,"INCLINATION":53.2175,"RA_OF_ASC_NODE":149.6935,"ARG_OF_PERICENTER":81.7072,"MEAN_ANOMALY":278.4062,"EPHEMERIS_TYPE":0,"CLASSIFICATION_TYPE":"U","NORAD_CAT_ID":49743,"ELEMENT_SET_NO":999,"REV_AT_EPOCH":23551,"BSTAR":-3.140838e-6,"MEAN_MOTION_DOT":-3.38e-6,"MEAN_MOTION_DDOT":0},{"OBJECT_NAME":"LEMUR-2-SIERRINI","OBJECT_ID":"2024-149DR","EPOCH":"2026-03-09T19:24:50.445216","MEAN_MOTION":15.08682764,"ECCENTRICITY":0.00065795,"INCLINATION":97.6873,"RA_OF_ASC_NODE":151.1225,"ARG_OF_PERICENTER":147.8458,"MEAN_ANOMALY":212.3173,"EPHEMERIS_TYPE":0,"CLASSIFICATION_TYPE":"U","NORAD_CAT_ID":60579,"ELEMENT_SET_NO":999,"REV_AT_EPOCH":8546,"BSTAR":0.00092040134,"MEAN_MOTION_DOT":0.00014386,"MEAN_MOTION_DDOT":0}]
